ORBCOMM FM05            
1 25117U 97084F   25344.22481858  .00002549  00000+0  73821-3 0  9993
2 25117  45.0133 242.4123 0003229  15.5929 344.5022 14.46694105466094
ORBCOMM FM06            
1 25118U 97084G   25344.15941046  .00002355  00000+0  68287-3 0  9991
2 25118  45.0124 242.2541 0002159   9.7477 144.1080 14.46853774467000
ORBCOMM FM07            
1 25119U 97084H   25344.41848472  .00002498  00000+0  72152-3 0  9994
2 25119  45.0120 241.7586 0004034  15.4708 344.6267 14.46867052467036
ORBCOMM FM03            
1 25158U 98007B   25344.38653419  .00001944  00000+0  71868-3 0  9992
2 25158 107.9637 137.6589 0046458 298.5629  61.0840 14.35014934449317
ORBCOMM FM04            
1 25159U 98007C   25344.41035243  .00002041  00000+0  75017-3 0  9995
2 25159 107.9629 141.0488 0042348 295.7840  63.8934 14.35260374449500
ORBCOMM FM17            
1 25413U 98046A   25344.50073041  .00001590  00000+0  59590-3 0  9995
2 25413  44.9924 145.2495 0002143  34.0873 326.0112 14.35528016428503
ORBCOMM FM18            
1 25414U 98046B   25344.57572421  .00002323  00000+0  78896-3 0  9994
2 25414  44.9930  57.4932 0003056 115.4976 244.6189 14.39144314429658
ORBCOMM FM19            
1 25415U 98046C   25344.64416745  .00002466  00000+0  83789-3 0  9994
2 25415  44.9941  59.4375 0001830 121.6934  30.2392 14.38963754429612
